[{"OBJECT_NAME":"EDISON-1","OBJECT_ID":"2025-009B","EPOCH":"2026-03-09T19:16:13.822464","MEAN_MOTION":15.29042904,"ECCENTRICITY":0.00043285,"INCLINATION":97.4042,"RA_OF_ASC_NODE":151.6286,"ARG_OF_PERICENTER":306.4185,"MEAN_ANOMALY":53.6655,"EPHEMERIS_TYPE":0,"CLASSIFICATION_TYPE":"U","NORAD_CAT_ID":62610,"ELEMENT_SET_NO":999,"REV_AT_EPOCH":6375,"BSTAR":0.00052814963,"MEAN_MOTION_DOT":0.00014835,"MEAN_MOTION_DDOT":0},{"OBJECT_NAME":"STARLINK-35515","OBJECT_ID":"2025-263D","EPOCH":"2026-03-09T02:50:29.107680","MEAN_MOTION":15.27601008,"ECCENTRICITY":0.00017584,"INCLINATION":43.0044,"RA_OF_ASC_NODE":353.7399,"ARG_OF_PERICENTER":261.7226,"MEAN_ANOMALY":98.3426,"EPHEMERIS_TYPE":0,"CLASSIFICATION_TYPE":"U","NORAD_CAT_ID":66488,"ELEMENT_SET_NO":999,"REV_AT_EPOCH":1881,"BSTAR":0.0015562028,"MEAN_MOTION_DOT":0.00042838,"MEAN_MOTION_DDOT":0}]
